SL-16 R/B               
1 25400U 98043G   26064.73228764  .00000091  00000+0  56835-4 0  9992
2 25400  98.8249  18.0679 0010400  31.3071 328.8725 14.26048615438427
SL-16 R/B               
1 25407U 98045B   26064.68835711 -.00000110  00000+0 -31582-4 0  9997
2 25407  71.0114 189.9878 0006504  14.1090 346.0214 14.16189129426536
ISS (ZARYA)             
1 25544U 98067A   26064.70570909  .00008837  00000+0  17141-3 0  9997
2 25544  51.6315  92.0530 0008143 160.3826 199.7477 15.48463204555718
CZ-4B R/B               
1 25732U 99025C   26064.72394169  .00000077  00000+0  57910-4 0  9992
2 25732  98.6634 109.0993 0036967 358.0685 110.0549 14.18264521387602
OKEAN-O                 
1 25860U 99039A   26064.73154934  .00000953  00000+0  13182-3 0  9999
2 25860  97.9449 124.6631 0001380  70.3542 289.7819 14.80328292433802
SL-16 R/B               
1 25861U 99039B   26064.71514196  .00000837  00000+0  11296-3 0  9993
2 25861  97.9973 123.8176 0013431 270.3696  89.5978 14.81725530436275
DELTA 2 R/B             
1 25876U 99041E   26064.76054674  .00001708  00000+0  31258-3 0  9995
2 25876  51.7640 316.9739 0502363 336.8392  21.0590 14.11825663362470
HELIOS 1B               
1 25977U 99064A   26064.67829742  .00003067  00000+0  34317-3 0  9997
2 25977  98.1698 326.8039 0002507  80.2123 279.9376 14.87680091684661
TERRA                   
1 25994U 99068A   26064.81232806  .00000633  00000+0  13820-3 0  9997
2 25994  97.9601 118.3950 0002463 160.7752 264.6855 14.61010123394510
SL-16 R/B               
1 26070U 00006B   26064.56143884  .00000128  00000+0  89070-4 0  9996
2 26070  71.0012 106.5183 0017079 195.9469 164.1119 14.15825328347971
TITAN 4B R/B            
1 26474U 00047B   26064.85353332  .00005818  00000+0  36392-3 0  9991
2 26474  67.9892  51.2965 0038228  39.9288 320.4661 15.09517129392338
ENVISAT                 
1 27386U 02009A   26064.84712542  .00000197  00000+0  77814-4 0  9995
2 27386  98.3722  18.5361 0001332  84.3208 283.9722 14.39035320258623
